1 22490U 93009B 26161.97386536 .00000352 00000+0 45581-4 0 9997 
2 22490 24.9685 245.9421 0042177 72.3310 93.7141 14.46116689760214 
1 25397U 98043D 26162.23421909 .00000045 00000+0 39618-4 0 9996 
2 25397 99.0066 154.8428 0000714 177.8276 182.2905 14.24427245450483 
1 25504U 98060A 26162.15226959 .00000361 00000+0 50104-4 0 9998 
2 25504 24.9944 109.3743 0016932 60.0003 324.7192 14.45523442459456 
1 25757U 99029B 26162.23108934 .00000074 00000+0 30083-4 0 9990 
2 25757 98.6694 157.5392 0014428 13.1950 346.9619 14.52425312432387 
1 25994U 99068A 26162.26133616 .00000307 00000+0 71519-4 0 9992 
2 25994 97.9458 212.0424 0001137 214.4897 187.4080 14.61098276408740 
1 27004U 01056D 26162.25827317 -.00000013 00000+0 38071-4 0 9994 
2 27004 99.8079 339.0062 0020148 156.1320 26.0794 13.70262214225378 
1 27424U 02022A 26162.24629726 .00000650 00000+0 13898-3 0 9992 
2 27424 98.4275 131.4106 0001342 52.9973 55.0227 14.62148978282404 
1 28220U 04012A 26162.18117162 .00011476 00000+0 35555-3 0 9999 
2 28220 97.8693 239.8597 0006093 52.1602 308.0190 15.33607643210175 
1 28376U 04026A 26162.23449174 .00000637 00000+0 13869-3 0 9994 
2 28376 98.3415 118.6386 0001285 72.4120 287.7221 14.61319969165340 
1 28649U 05017A 26162.30693729 .00000998 00000+0 10616-3 0 9990 
2 28649 97.5309 185.6382 0002671 87.9210 272.2315 14.91033197142940 
1 28893U 05043D 26162.24531800 .00000244 00000+0 55702-4 0 9994 
2 28893 98.2852 296.5326 0013230 297.2086 62.7767 14.64153598 99652 
1 29228U 06021A 26161.95381398 .00002133 00000+0 12595-3 0 9997 
2 29228 69.9338 355.6885 0006638 296.5996 63.4489 15.13189359101632 
1 29268U 06031A 26162.30301764 .00000072 00000+0 22044-4 0 9992 
2 29268 97.8313 347.0347 0015937 91.5425 85.5591 14.64655651 60618 
1 29709U 07001A 26162.26125227 -.00000137 00000+0 -91209-5 0 9997 
2 29709 98.1345 161.3518 0011443 199.3119 160.7663 14.85942371 50277 
1 31113U 07010A 26162.20158712 .00000074 00000+0 43904-4 0 9994 
2 31113 98.3491 144.2789 0012657 214.9195 145.1160 14.31025370999777 
1 31598U 07023A 26162.32012231 .00001837 00000+0 16455-3 0 9991 
2 31598 97.8850 354.1275 0001001 87.4063 272.7273 14.97071129 28913 
1 31698U 07026A 26160.28753291 .00000433 00000+0 23833-4 0 9996 
2 31698 97.4448 168.1064 0001684 80.8129 279.3296 15.19149435 52027 
1 32060U 07041A 26162.25238800 .00004816 00000+0 20057-3 0 9993 
2 32060 97.3864 282.0821 0002785 37.6972 322.4460 15.24200310 41979 
1 32289U 07055A 26162.28784961 .00001837 00000+0 19269-3 0 9991 
2 32289 97.8159 192.2239 0001807 86.5932 273.5493 14.90756900 4998 
1 32376U 07059A 26162.28762216 .00000346 00000+0 50050-4 0 9999 
2 32376 97.8885 345.9713 0001389 85.4372 274.7000 14.82149932 1138 
1 32382U 07061A 26162.30020027 -.00000024 00000+0 76267-5 0 9992 
2 32382 98.5782 169.3169 0001307 83.6613 276.4718 14.29983425965116 
1 32783U 08021A 26162.29679522 .00000769 00000+0 11010-3 0 9990 
2 32783 97.7639 211.2064 0012912 126.1888 234.0520 14.79230068977932 
1 33320U 08041A 26162.30009532 .00000937 00000+0 11849-3 0 9997 
2 33320 97.6681 148.3663 0019431 153.2797 206.9424 14.83972218957534 
1 33321U 08041B 26162.26650262 .00001433 00000+0 17942-3 0 9997 
2 33321 97.6518 151.5236 0035516 200.5815 159.3971 14.83308852957530 
1 33331U 08042A 26162.20867320 .00000352 00000+0 74972-4 0 9994 
2 33331 98.1235 236.2155 0005546 83.8672 276.3163 14.64720053949272 
1 33396U 08049A 26162.33239451 -.00000068 00000+0 -12131-4 0 9999 
2 33396 98.5575 219.8060 0001248 80.7895 279.3424 14.20132421917135 
1 33412U 08054A 26162.23343549 .00001956 00000+0 13514-3 0 9997 
2 33412 97.8287 20.7058 0014409 289.3425 70.6243 15.06907996956047 
1 33446U 08061A 26162.09541236 .00000803 00000+0 10483-3 0 9991 
2 33446 97.9309 95.6508 0015780 90.4189 269.8833 14.83188329944760 
1 33492U 09002A 26162.20651204 .00000937 00000+0 17365-3 0 9992 
2 33492 98.0885 273.3629 0001612 89.1411 270.9979 14.67538884930589 
1 35681U 09041A 26162.28541148 .00000708 00000+0 11175-3 0 9999 
2 35681 97.7398 319.7693 0001288 138.3422 221.7886 14.75232338906016 
