OBJECT_NAME,OBJECT_ID,EPOCH,MEAN_MOTION,ECCENTRICITY,INCLINATION,RA_OF_ASC_NODE,ARG_OF_PERICENTER,MEAN_ANOMALY,EPHEMERIS_TYPE,CLASSIFICATION_TYPE,NORAD_CAT_ID,ELEMENT_SET_NO,REV_AT_EPOCH,BSTAR,MEAN_MOTION_DOT,MEAN_MOTION_DDOT
SCD 1,1993-009B,2026-06-10T23:22:21.967104,14.46116689,.00421774,24.9685,245.9421,72.3310,93.7141,0,U,22490,999,76021,.45581135E-4,.352E-5,0
TECHSAT 1B (GO-32),1998-043D,2026-06-11T05:37:16.529376,14.24427245,.00007143,99.0066,154.8428,177.8276,182.2905,0,U,25397,999,45048,.39618044E-4,.45E-6,0
SCD 2,1998-060A,2026-06-11T03:39:16.092576,14.45523442,.00169327,24.9944,109.3743,60.0003,324.7192,0,U,25504,999,45945,.50104351E-4,.361E-5,0
DLR-TUBSAT,1999-029B,2026-06-11T05:32:46.118976,14.52425312,.00144286,98.6694,157.5392,13.1950,346.9619,0,U,25757,999,43238,.30082974E-4,.74E-6,0
TERRA,1999-068A,2026-06-11T06:16:19.444224,14.61098276,.00011371,97.9458,212.0424,214.4897,187.4080,0,U,25994,999,40874,.71518675E-4,.307E-5,0
MAROC-TUBSAT,2001-056D,2026-06-11T06:11:54.801888,13.70262214,.00201481,99.8079,339.0062,156.1320,26.0794,0,U,27004,999,22537,.38070899E-4,-.13E-6,0
AQUA,2002-022A,2026-06-11T05:54:40.083264,14.62148978,.00013423,98.4275,131.4106,52.9973,55.0227,0,U,27424,999,28240,.13898476E-3,.65E-5,0
SHIYAN-1 (SY-1),2004-012A,2026-06-11T04:20:53.227968,15.33607643,.00060935,97.8693,239.8597,52.1602,308.0190,0,U,28220,999,21017,.35554849E-3,.11476E-3,0
AURA,2004-026A,2026-06-11T05:37:40.086336,14.61319969,.00012853,98.3415,118.6386,72.4120,287.7221,0,U,28376,999,16534,.13869101E-3,.637E-5,0
IRS-P5 (CARTOSAT-1),2005-017A,2026-06-11T07:21:59.381856,14.91033197,.00026714,97.5309,185.6382,87.9210,272.2315,0,U,28649,999,14294,.10615547E-3,.998E-5,0
SINAH 1,2005-043D,2026-06-11T05:53:15.475200,14.64153598,.00132305,98.2852,296.5326,297.2086,62.7767,0,U,28893,999,9965,.55702355E-4,.244E-5,0
RESURS-DK 1,2006-021A,2026-06-10T22:53:29.527872,15.13189359,.00066385,69.9338,355.6885,296.5996,63.4489,0,U,29228,999,10163,.12594666E-3,.2133E-4,0
ARIRANG-2 (KOMPSAT-2),2006-031A,2026-06-11T07:16:20.724096,14.64655651,.00159371,97.8313,347.0347,91.5425,85.5591,0,U,29268,999,6061,.22043706E-4,.72E-6,0
LAPAN-TUBSAT,2007-001A,2026-06-11T06:16:12.196128,14.85942371,.00114434,98.1345,161.3518,199.3119,160.7663,0,U,29709,999,5027,-.9120891E-5,-.137E-5,0
HAIYANG-1B,2007-010A,2026-06-11T04:50:17.127168,14.31025370,.00126576,98.3491,144.2789,214.9195,145.1160,0,U,31113,999,99977,.43904E-4,.74E-6,0
COSMO-SKYMED 1,2007-023A,2026-06-11T07:40:58.567584,14.97071129,.0001001,97.8850,354.1275,87.4063,272.7273,0,U,31598,999,2891,.16455173E-3,.1837E-4,0
TERRASAR-X,2007-026A,2026-06-09T06:54:02.843424,15.19149435,.00016846,97.4448,168.1064,80.8129,279.3296,0,U,31698,999,5202,.23832718E-4,.433E-5,0
WORLDVIEW-1 (WV-1),2007-041A,2026-06-11T06:03:26.323200,15.24200310,.00027854,97.3864,282.0821,37.6972,322.4460,0,U,32060,999,4197,.20057101E-3,.4816E-4,0
YAOGAN-3,2007-055A,2026-06-11T06:54:30.206304,14.90756900,.00018076,97.8159,192.2239,86.5932,273.5493,0,U,32289,999,499,.19268577E-3,.1837E-4,0
COSMO-SKYMED 2,2007-059A,2026-06-11T06:54:10.554624,14.82149932,.00013898,97.8885,345.9713,85.4372,274.7000,0,U,32376,999,113,.50049614E-4,.346E-5,0
RADARSAT-2,2007-061A,2026-06-11T07:12:17.303328,14.29983425,.00013073,98.5782,169.3169,83.6613,276.4718,0,U,32382,999,96511,.7626653E-5,-.24E-6,0
CARTOSAT-2A,2008-021A,2026-06-11T07:07:23.107008,14.79230068,.0012912,97.7639,211.2064,126.1888,234.0520,0,U,32783,999,97793,.11010284E-3,.769E-5,0
HUANJING 1A (HJ-1A),2008-041A,2026-06-11T07:12:08.235648,14.83972218,.00194314,97.6681,148.3663,153.2797,206.9424,0,U,33320,999,95753,.11849067E-3,.937E-5,0
HUANJING 1B (HJ-1B),2008-041B,2026-06-11T06:23:45.826368,14.83308852,.00355168,97.6518,151.5236,200.5815,159.3971,0,U,33321,999,95753,.17941801E-3,.1433E-4,0
GEOEYE 1,2008-042A,2026-06-11T05:00:29.364480,14.64720053,.00055466,98.1235,236.2155,83.8672,276.3163,0,U,33331,999,94927,.74972232E-4,.352E-5,0
THEOS,2008-049A,2026-06-11T07:58:38.885664,14.20132421,.00012486,98.5575,219.8060,80.7895,279.3424,0,U,33396,999,91713,-.12130772E-4,-.68E-6,0
COSMO-SKYMED 3,2008-054A,2026-06-11T05:36:08.826336,15.06907996,.00144093,97.8287,20.7058,289.3425,70.6243,0,U,33412,999,95604,.13514497E-3,.1956E-4,0
YAOGAN-4,2008-061A,2026-06-11T02:17:23.627904,14.83188329,.00157805,97.9309,95.6508,90.4189,269.8833,0,U,33446,999,94476,.10482894E-3,.803E-5,0
GOSAT (IBUKI),2009-002A,2026-06-11T04:57:22.640256,14.67538884,.00016126,98.0885,273.3629,89.1411,270.9979,0,U,33492,999,93058,.17365358E-3,.937E-5,0
DEIMOS-1,2009-041A,2026-06-11T06:50:59.551872,14.75232338,.0001288,97.7398,319.7693,138.3422,221.7886,0,U,35681,999,90601,.11175012E-3,.708E-5,0
